NORAD_CAT_ID,OBJECT_NAME,OBJECT_TYPE,EPOCH,MEAN_MOTION,ECCENTRICITY,INCLINATION,RA_OF_ASC_NODE,ARG_OF_PERICENTER,MEAN_ANOMALY,BSTAR,MEAN_MOTION_DOT,MEAN_MOTION_DDOT,TLE_LINE0,TLE_LINE1,TLE_LINE2,SEMIMAJOR_AXIS,PERIOD,APOGEE,PERIGEE,DECAYED
52551.0,STARLINK-3969,PAYLOAD,2023-06-04 05:46:48,15.08839203,0.0001112,53.2192,340.713,80.0968,280.015,2.7236e-05,1.46e-06,0.0,0 STARLINK-3969,1 52551U 22051U   23155.24084030  .00000146  00000-0  27236-4 0  9990,2 52551  53.2192 340.7130 0001112  80.0968 280.0150 15.08839203 59128,6917.883,95.438,540.517,538.979,0.0
52551.0,STARLINK-3969,PAYLOAD,2023-06-04 18:29:53,15.08837191,6.52e-05,53.2182,338.3332,83.7916,276.315,8.4909e-05,1.064e-05,0.0,0 STARLINK-3969,1 52551U 22051U   23155.77076017  .00001064  00000-0  84909-4 0  9994,2 52551  53.2182 338.3332 0000652  83.7916 276.3150 15.08837191 59138,6917.889,95.438,540.205,539.303,0.0
52551.0,STARLINK-3969,PAYLOAD,2023-06-05 05:37:35,15.08844567,8.51e-05,53.2179,336.2521,78.5891,281.5196,0.00010331,1.357e-05,0.0,0 STARLINK-3969,1 52551U 22051U   23156.23443514  .00001357  00000-0  10331-3 0  9998,2 52551  53.2179 336.2521 0000851  78.5891 281.5196 15.08844567 59207,6917.866,95.437,540.32,539.143,0.0
52551.0,STARLINK-3969,PAYLOAD,2023-06-05 16:45:17,15.08843058,9.08e-05,53.218,334.1699,81.4537,278.6558,0.00011924,1.611e-05,0.0,0 STARLINK-3969,1 52551U 22051U   23156.69811601  .00001611  00000-0  11924-3 0  9996,2 52551  53.2180 334.1699 0000908  81.4537 278.6558 15.08843058 59343,6917.871,95.437,540.364,539.108,0.0
52551.0,STARLINK-3969,PAYLOAD,2023-06-05 18:20:40,15.0884855,8.73e-05,53.2182,333.8711,89.1613,270.9479,9.6356e-05,1.246e-05,0.0,0 STARLINK-3969,1 52551U 22051U   23156.76435285  .00001246  00000-0  96356-4 0  9991,2 52551  53.2182 333.8711 0000873  89.1613 270.9479 15.08848550 59289,6917.854,95.437,540.323,539.115,0.0
52551.0,STARLINK-3969,PAYLOAD,2023-06-06 13:25:18,15.08838904,9.13e-05,53.2173,330.3036,81.2053,278.9042,5.7988e-05,6.35e-06,0.0,0 STARLINK-3969,1 52551U 22051U   23157.55923919  .00000635  00000-0  57988-4 0  9994,2 52551  53.2173 330.3036 0000913  81.2053 278.9042 15.08838904 59407,6917.884,95.438,540.38,539.117,0.0
52551.0,STARLINK-3969,PAYLOAD,2023-06-06 15:00:40,15.08858511,0.000102,53.2178,330.0055,78.0279,282.0828,-0.00023803,-4.076e-05,0.0,0 STARLINK-3969,1 52551U 22051U   23157.62547190 -.00004076  00000-0 -23803-3 0  9998,2 52551  53.2178 330.0055 0001020  78.0279 282.0828 15.08858511 59419,6917.824,95.436,540.394,538.983,0.0
52551.0,STARLINK-3969,PAYLOAD,2023-06-06 21:22:13,15.08845943,8.94e-05,53.2178,328.8159,87.3646,272.7449,8.4055e-05,1.05e-05,0.0,0 STARLINK-3969,1 52551U 22051U   23157.89043321  .00001050  00000-0  84055-4 0  9998,2 52551  53.2178 328.8159 0000894  87.3646 272.7449 15.08845943 59520,6917.862,95.437,540.346,539.109,0.0
52551.0,STARLINK-3969,PAYLOAD,2023-06-07 11:40:42,15.08833699,8.23e-05,53.2181,326.1425,81.5321,278.5764,2.5431e-06,-2.47e-06,0.0,0 STARLINK-3969,1 52551U 22051U   23158.48660298 -.00000247  00000-0  25431-5 0  9994,2 52551  53.2181 326.1425 0000823  81.5321 278.5764 15.08833699 59618,6917.9,95.438,540.334,539.195,0.0
52551.0,STARLINK-3969,PAYLOAD,2023-06-07 13:16:05,15.08837244,7.52e-05,53.217,325.8428,91.4175,268.6904,-9.6625e-07,-3.03e-06,0.0,0 STARLINK-3969,1 52551U 22051U   23158.55284096 -.00000303  00000-0 -96625-6 0  9998,2 52551  53.2170 325.8428 0000752  91.4175 268.6904 15.08837244 59552,6917.889,95.438,540.274,539.234,0.0
52551.0,STARLINK-3969,PAYLOAD,2023-06-07 18:02:14,15.08844379,8.47e-05,53.2175,324.9518,89.1527,270.9562,5.063e-05,5.18e-06,0.0,0 STARLINK-3969,1 52551U 22051U   23158.75155520  .00000518  00000-0  50630-4 0  9999,2 52551  53.2175 324.9518 0000847  89.1527 270.9562 15.08844379 59651,6917.867,95.437,540.318,539.146,0.0
52551.0,STARLINK-3969,PAYLOAD,2023-06-07 21:13:00,15.08845344,9.9e-05,53.2186,324.358,94.7064,265.4041,9.0282e-05,1.15e-05,0.0,0 STARLINK-3969,1 52551U 22051U   23158.88403357  .00001150  00000-0  90282-4 0  9997,2 52551  53.2186 324.3580 0000990  94.7064 265.4041 15.08845344 59602,6917.864,95.437,540.414,539.044,0.0
52551.0,STARLINK-3969,PAYLOAD,2023-06-08 11:31:29,15.0883336,0.00012,53.22,321.6836,99.0686,261.0442,3.7972e-05,3.16e-06,0.0,0 STARLINK-3969,1 52551U 22051U   23159.48020406  .00000316  00000-0  37972-4 0  9994,2 52551  53.2200 321.6836 0001200  99.0686 261.0442 15.08833360 59765,6917.901,95.438,540.596,538.936,0.0
52551.0,STARLINK-3969,PAYLOAD,2023-06-08 17:53:01,15.08842779,9.6e-05,53.2184,320.492,95.5654,264.5447,9.9348e-05,1.294e-05,0.0,0 STARLINK-3969,1 52551U 22051U   23159.74515659  .00001294  00000-0  99348-4 0  9993,2 52551  53.2184 320.4920 0000960  95.5654 264.5447 15.08842779 59807,6917.872,95.437,540.401,539.073,0.0
52551.0,STARLINK-3969,PAYLOAD,2023-06-09 20:54:35,15.0884292,9.11e-05,53.2171,315.436,101.417,258.6925,6.0349e-05,6.73e-06,0.0,0 STARLINK-3969,1 52551U 22051U   23160.87123972  .00000673  00000-0  60349-4 0  9991,2 52551  53.2171 315.4360 0000911 101.4170 258.6925 15.08842920 59905,6917.871,95.437,540.367,539.106,0.0
52551.0,STARLINK-3969,PAYLOAD,2023-06-10 03:16:07,15.08840988,9.48e-05,53.2175,314.244,86.2817,273.8284,3.5026e-06,-2.32e-06,0.0,0 STARLINK-3969,1 52551U 22051U   23161.13620243 -.00000232  00000-0  35026-5 0  9991,2 52551  53.2175 314.2440 0000948  86.2817 273.8284 15.08840988 60016,6917.877,95.437,540.398,539.087,0.0
52551.0,STARLINK-3969,PAYLOAD,2023-06-10 19:09:59,15.08847215,0.0001449,53.2176,311.2709,107.601,252.514,-7.1122e-06,-4.01e-06,0.0,0 STARLINK-3969,1 52551U 22051U   23161.79860064 -.00000401  00000-0 -71122-5 0  9996,2 52551  53.2176 311.2709 0001449 107.6010 252.5140 15.08847215 60040,6917.858,95.437,540.726,538.721,0.0
52551.0,STARLINK-3969,PAYLOAD,2023-06-11 03:06:55,15.08830994,0.0001535,53.218,309.7831,83.8862,276.2305,2.9299e-05,1.78e-06,0.0,0 STARLINK-3969,1 52551U 22051U   23162.12981222  .00000178  00000-0  29299-4 0  9990,2 52551  53.2180 309.7831 0001535  83.8862 276.2305 15.08830994 60164,6917.908,95.438,540.835,538.711,0.0
52551.0,STARLINK-3969,PAYLOAD,2023-06-11 12:39:14,15.08833923,6.99e-05,53.2194,307.9986,95.388,264.7192,3.7228e-05,3.05e-06,0.0,0 STARLINK-3969,1 52551U 22051U   23162.52724911  .00000305  00000-0  37228-4 0  9997,2 52551  53.2194 307.9986 0000699  95.3880 264.7192 15.08833923 60158,6917.899,95.438,540.248,539.28,0.0
52551.0,STARLINK-3969,PAYLOAD,2023-06-11 19:00:46,15.08846741,9.97e-05,53.2187,306.8103,90.1679,269.9427,0.00014446,2.012e-05,0.0,0 STARLINK-3969,1 52551U 22051U   23162.79219923  .00002012  00000-0  14446-3 0  9991,2 52551  53.2187 306.8103 0000997  90.1679 269.9427 15.08846741 60193,6917.86,95.437,540.414,539.035,0.0
52551.0,STARLINK-3969,PAYLOAD,2023-06-12 02:57:41,15.08843173,0.0001013,53.2178,305.324,80.036,280.0747,9.6419e-05,1.247e-05,0.0,0 STARLINK-3969,1 52551U 22051U   23163.12340240  .00001247  00000-0  96419-4 0  9996,2 52551  53.2178 305.3240 0001013  80.0360 280.0747 15.08843173 60313,6917.871,95.437,540.436,539.035,0.0
52551.0,STARLINK-3969,PAYLOAD,2023-06-12 15:40:47,15.08839981,8.64e-05,53.2177,302.9465,88.0522,272.0569,9.7533e-05,1.265e-05,0.0,0 STARLINK-3969,1 52551U 22051U   23163.65332512  .00001265  00000-0  97533-4 0  9995,2 52551  53.2177 302.9465 0000864  88.0522 272.0569 15.08839981 60321,6917.88,95.438,540.343,539.148,0.0
52551.0,STARLINK-3969,PAYLOAD,2023-06-13 02:48:28,15.08847004,9.33e-05,53.2176,300.8661,85.655,274.4548,5.2348e-05,5.46e-06,0.0,0 STARLINK-3969,1 52551U 22051U   23164.11700084  .00000546  00000-0  52348-4 0  9996,2 52551  53.2176 300.8661 0000933  85.6550 274.4548 15.08847004 60391,6917.859,95.437,540.369,539.079,0.0
52551.0,STARLINK-3969,PAYLOAD,2023-06-13 18:42:20,15.08843458,9.43e-05,53.2178,297.8932,72.0243,288.0852,4.8477e-05,4.84e-06,0.0,0 STARLINK-3969,1 52551U 22051U   23164.77940348  .00000484  00000-0  48477-4 0  9996,2 52551  53.2178 297.8932 0000943  72.0243 288.0852 15.08843458 60566,6917.87,95.437,540.387,539.082,0.0
52551.0,STARLINK-3969,PAYLOAD,2023-06-14 12:11:35,15.08838134,0.0001166,53.2189,294.6177,107.0327,253.0793,3.9988e-05,3.49e-06,0.0,0 STARLINK-3969,1 52551U 22051U   23165.50804708  .00000349  00000-0  39988-4 0  9994,2 52551  53.2189 294.6177 0001166 107.0327 253.0793 15.08838134 60600,6917.886,95.438,540.558,538.944,0.0
52551.0,STARLINK-3969,PAYLOAD,2023-06-15 04:05:26,15.08855572,0.0001205,53.2179,291.6452,105.668,254.4445,-0.00017409,-3.059e-05,0.0,0 STARLINK-3969,1 52551U 22051U   23166.17044354 -.00003059  00000-0 -17409-3 0  9997,2 52551  53.2179 291.6452 0001205 105.6680 254.4445 15.08855572 60774,6917.833,95.437,540.531,538.864,0.0
52551.0,STARLINK-3969,PAYLOAD,2023-06-15 13:37:45,15.0884312,9.68e-05,53.2178,289.8633,90.8483,269.262,0.00011251,1.503e-05,0.0,0 STARLINK-3969,1 52551U 22051U   23166.56788339  .00001503  00000-0  11251-3 0  9997,2 52551  53.2178 289.8633 0000968  90.8483 269.2620 15.08843120 60768,6917.871,95.437,540.406,539.066,0.0
52551.0,STARLINK-3969,PAYLOAD,2023-06-16 03:56:13,15.08840199,0.0001009,53.2175,287.1876,93.7358,266.375,0.00010017,1.307e-05,0.0,0 STARLINK-3969,1 52551U 22051U   23167.16404404  .00001307  00000-0  10017-3 0  9993,2 52551  53.2175 287.1876 0001009  93.7358 266.3750 15.08840199 60928,6917.88,95.438,540.443,539.047,0.0
52551.0,STARLINK-3969,PAYLOAD,2023-06-16 11:53:08,15.08844148,9.86e-05,53.2176,285.7005,95.1012,265.0092,0.00011852,1.599e-05,0.0,0 STARLINK-3969,1 52551U 22051U   23167.49524087  .00001599  00000-0  11852-3 0  9990,2 52551  53.2176 285.7005 0000986  95.1012 265.0092 15.08844148 60904,6917.868,95.437,540.415,539.051,0.0
52551.0,STARLINK-3969,PAYLOAD,2023-06-16 15:03:54,15.0885118,9.42e-05,53.2177,285.1072,85.4675,274.6425,0.00017985,2.577e-05,0.0,0 STARLINK-3969,1 52551U 22051U   23167.62771513  .00002577  00000-0  17985-3 0  9993,2 52551  53.2177 285.1072 0000942  85.4675 274.6425 15.08851180 60991,6917.846,95.437,540.363,539.06,0.0
